OBJECT_NAME,OBJECT_ID,EPOCH,MEAN_MOTION,ECCENTRICITY,INCLINATION,RA_OF_ASC_NODE,ARG_OF_PERICENTER,MEAN_ANOMALY,EPHEMERIS_TYPE,CLASSIFICATION_TYPE,NORAD_CAT_ID,ELEMENT_SET_NO,REV_AT_EPOCH,BSTAR,MEAN_MOTION_DOT,MEAN_MOTION_DDOT
STARLINK-36364,2026-038T,2026-06-29T12:56:17.443392,15.33447304,.0001534,97.2839,190.1167,121.9052,238.2340,0,U,67978,999,2038,.52043E-3,.16765E-3,0
STARLINK-36359,2026-038U,2026-06-29T13:11:57.350112,15.33441240,.000205,97.2833,190.1026,98.5127,261.6348,0,U,67979,999,2038,.22649E-3,.7243E-4,0
STARLINK-36882,2026-038V,2026-06-29T11:26:13.881120,15.33512252,.0002199,97.2829,190.0488,104.9837,255.1649,0,U,67980,999,2037,.16244E-2,.52847E-3,0
STARLINK-36874,2026-038W,2026-06-29T12:52:22.338624,15.33449055,.0001243,97.2827,190.1212,139.9950,220.1384,0,U,67981,999,2038,.209E-3,.6679E-4,0
STARLINK-36879,2026-038X,2026-06-29T11:14:29.500800,15.33452904,.0001216,97.2838,190.0569,88.5774,271.5608,0,U,67982,999,2037,.53832E-3,.17348E-3,0
STARLINK-36867,2026-038Y,2026-06-29T12:40:37.773408,15.33445076,.0001183,97.2824,190.1302,101.2621,258.8755,0,U,67983,999,2038,.52914E-3,.17046E-3,0
STARLINK-36266,2026-038Z,2026-06-29T12:44:32.517024,15.33447981,.0001096,97.2829,190.1293,116.6929,243.4426,0,U,67984,999,2038,.37297E-3,.11986E-3,0
STARLINK-36802,2026-038AA,2026-06-29T12:34:55.624224,15.33450595,.0001008,97.2837,190.9009,51.0632,309.0700,0,U,67985,999,2043,.6517E-3,.21026E-3,0
STARLINK-36535,2026-039A,2026-06-28T22:37:18.472224,15.27594169,.00014698,42.9984,141.0185,178.8412,181.2444,0,U,67986,999,1871,.47182649E-3,.1275E-3,0
STARLINK-36744,2026-039B,2026-06-28T22:31:45.047712,15.27571212,.00012024,43.0007,140.9946,261.3833,98.6882,0,U,67987,999,1871,.66337985E-3,.18032E-3,0
STARLINK-36734,2026-039C,2026-06-28T22:26:12.846624,15.27583706,.0000692,43.0009,140.9884,264.0594,96.0179,0,U,67988,999,1871,.37055552E-3,.995E-4,0
STARLINK-36957,2026-039D,2026-06-28T22:20:38.825088,15.27600155,.00029354,43.0027,140.9349,146.5751,213.5286,0,U,67989,999,1871,.49395383E-3,.13364E-3,0
STARLINK-36951,2026-039E,2026-06-28T22:15:05.918976,15.27586040,.0000797,42.9989,140.9092,280.4824,79.5938,0,U,67990,999,1871,.28864776E-3,.7691E-4,0
STARLINK-36941,2026-039F,2026-06-28T22:11:24.443808,15.27589109,.00003656,43.0004,140.9078,237.1758,122.9059,0,U,67991,999,1871,.50684967E-3,.13715E-3,0
STARLINK-36950,2026-039G,2026-06-28T22:05:50.725536,15.27605881,.000103,42.9991,140.8691,267.8780,92.1953,0,U,67992,999,1871,.64133537E-3,.17442E-3,0
STARLINK-36975,2026-039H,2026-06-28T22:00:18.389664,15.27589052,.00005048,42.9978,140.8382,283.2259,76.8537,0,U,67993,999,1871,.54547817E-3,.14783E-3,0
STARLINK-36993,2026-039J,2026-06-29T08:53:49.134048,15.27617359,.0001224,43.0012,138.2071,262.4366,97.6347,0,U,67994,999,1878,.51253E-3,.13884E-3,0
STARLINK-36968,2026-039K,2026-06-28T23:03:00.282816,15.27601007,.00020435,42.9974,140.3039,281.1566,78.9056,0,U,67995,999,1872,.80459689E-3,.21959E-3,0
STARLINK-36979,2026-039L,2026-06-28T21:49:12.496224,15.27579915,.00004848,42.9968,140.7609,136.0975,223.9916,0,U,67996,999,1871,.47176031E-3,.12742E-3,0
STARLINK-36994,2026-039M,2026-06-29T08:16:50.204928,15.27593092,.000152,43.0022,138.0177,268.0580,92.0097,0,U,67997,999,1878,.69282E-3,.18859E-3,0
STARLINK-36988,2026-039N,2026-06-29T08:22:23.275200,15.27584799,.0001715,43.0019,138.0456,270.4884,89.5771,0,U,67998,999,1878,.69847E-3,.19011E-3,0
STARLINK-36926,2026-039P,2026-06-29T08:11:18.379680,15.27607802,.0001528,43.0036,137.9910,266.3186,93.7491,0,U,67999,999,1878,.81543E-3,.22263E-3,0
STARLINK-36931,2026-039Q,2026-06-28T22:42:38.757888,15.27586280,.00012757,43.0029,140.1810,267.7992,92.2714,0,U,68000,999,1872,.45633314E-3,.12319E-3,0
STARLINK-36903,2026-039R,2026-06-28T22:39:09.360576,15.27594180,.00009576,42.9987,141.0355,235.5097,124.5664,0,U,68001,999,1871,.4790409E-3,.12949E-3,0
STARLINK-36898,2026-039S,2026-06-28T22:28:03.224352,15.27590455,.00006619,42.9989,140.9696,266.5105,93.5671,0,U,68002,999,1871,.57812445E-3,.15686E-3,0
STARLINK-36862,2026-039T,2026-06-28T22:16:57.173664,15.27587635,.0000498,42.9992,140.9139,281.8376,78.2420,0,U,68003,999,1871,.35659144E-3,.9566E-4,0
STARLINK-36888,2026-039U,2026-06-28T20:59:26.926080,15.27594760,.00006988,42.9985,141.3685,273.7965,86.2807,0,U,68004,999,1870,.55505916E-3,.1505E-3,0
STARLINK-36910,2026-039V,2026-06-28T22:22:30.806400,15.27618924,.00008307,43.0009,140.9361,266.9515,93.1242,0,U,68005,999,1871,.80862942E-3,.22083E-3,0
STARLINK-36889,2026-039W,2026-06-28T22:07:41.981952,15.27587599,.00007365,42.9978,140.8628,259.8057,100.2712,0,U,68006,999,1871,.41114022E-3,.11071E-3,0
STARLINK-36592,2026-039X,2026-06-29T09:01:13.702656,15.27627466,.0001251,42.9998,138.2406,245.3043,114.7678,0,U,68007,999,1878,.57552E-3,.15631E-3,0
