[
  {
    "name": "STARLINK-36364",
    "noradId": "67978",
    "line1": "1 67978U 26038T   26180.53909078  .00016765  00000+0  52043-3 0  9995",
    "line2": "2 67978  97.2839 190.1167 0001534 121.9052 238.2340 15.33447304 20384"
  },
  {
    "name": "STARLINK-36359",
    "noradId": "67979",
    "line1": "1 67979U 26038U   26180.54996933  .00007243  00000+0  22649-3 0  9993",
    "line2": "2 67979  97.2833 190.1026 0002050  98.5127 261.6348 15.33441240 20380"
  },
  {
    "name": "STARLINK-36882",
    "noradId": "67980",
    "line1": "1 67980U 26038V   26180.47654955  .00052847  00000+0  16244-2 0  9995",
    "line2": "2 67980  97.2829 190.0488 0002199 104.9837 255.1649 15.33512252 20375"
  },
  {
    "name": "STARLINK-36874",
    "noradId": "67981",
    "line1": "1 67981U 26038W   26180.53636966  .00006679  00000+0  20900-3 0  9992",
    "line2": "2 67981  97.2827 190.1212 0001243 139.9950 220.1384 15.33449055 20382"
  },
  {
    "name": "STARLINK-36879",
    "noradId": "67982",
    "line1": "1 67982U 26038X   26180.46839700  .00017348  00000+0  53832-3 0  9991",
    "line2": "2 67982  97.2838 190.0569 0001216  88.5774 271.5608 15.33452904 20377"
  },
  {
    "name": "STARLINK-36867",
    "noradId": "67983",
    "line1": "1 67983U 26038Y   26180.52821497  .00017046  00000+0  52914-3 0  9998",
    "line2": "2 67983  97.2824 190.1302 0001183 101.2621 258.8755 15.33445076 20380"
  },
  {
    "name": "STARLINK-36266",
    "noradId": "67984",
    "line1": "1 67984U 26038Z   26180.53093191  .00011986  00000+0  37297-3 0  9996",
    "line2": "2 67984  97.2829 190.1293 0001096 116.6929 243.4426 15.33447981 20381"
  },
  {
    "name": "STARLINK-36802",
    "noradId": "67985",
    "line1": "1 67985U 26038AA  26180.52425491  .00021026  00000+0  65170-3 0  9995",
    "line2": "2 67985  97.2837 190.9009 0001008  51.0632 309.0700 15.33450595 20435"
  },
  {
    "name": "STARLINK-36535",
    "noradId": "67986",
    "line1": "1 67986U 26039A   26179.94257491  .00012750  00000+0  47183-3 0  9992",
    "line2": "2 67986  42.9984 141.0185 0001469 178.8412 181.2444 15.27594169 18715"
  },
  {
    "name": "STARLINK-36744",
    "noradId": "67987",
    "line1": "1 67987U 26039B   26179.93871583  .00018032  00000+0  66338-3 0  9998",
    "line2": "2 67987  43.0007 140.9946 0001202 261.3833  98.6882 15.27571212 18718"
  },
  {
    "name": "STARLINK-36734",
    "noradId": "67988",
    "line1": "1 67988U 26039C   26179.93487091  .00009950  00000+0  37056-3 0  9990",
    "line2": "2 67988  43.0009 140.9884 0000692 264.0594  96.0179 15.27583706 18710"
  },
  {
    "name": "STARLINK-36957",
    "noradId": "67989",
    "line1": "1 67989U 26039D   26179.93100492  .00013364  00000+0  49395-3 0  9991",
    "line2": "2 67989  43.0027 140.9349 0002935 146.5751 213.5286 15.27600155 18711"
  },
  {
    "name": "STARLINK-36951",
    "noradId": "67990",
    "line1": "1 67990U 26039E   26179.92715184  .00007691  00000+0  28865-3 0  9997",
    "line2": "2 67990  42.9989 140.9092 0000797 280.4824  79.5938 15.27586040 18716"
  },
  {
    "name": "STARLINK-36941",
    "noradId": "67991",
    "line1": "1 67991U 26039F   26179.92458847  .00013715  00000+0  50685-3 0  9997",
    "line2": "2 67991  43.0004 140.9078 0000365 237.1758 122.9059 15.27589109 18713"
  },
  {
    "name": "STARLINK-36950",
    "noradId": "67992",
    "line1": "1 67992U 26039G   26179.92072599  .00017442  00000+0  64134-3 0  9999",
    "line2": "2 67992  42.9991 140.8691 0001030 267.8780  92.1953 15.27605881 18719"
  },
  {
    "name": "STARLINK-36975",
    "noradId": "67993",
    "line1": "1 67993U 26039H   26179.91687951  .00014783  00000+0  54548-3 0  9996",
    "line2": "2 67993  42.9978 140.8382 0000504 283.2259  76.8537 15.27589052 18718"
  },
  {
    "name": "STARLINK-36993",
    "noradId": "67994",
    "line1": "1 67994U 26039J   26180.37070757  .00013884  00000+0  51253-3 0  9990",
    "line2": "2 67994  43.0012 138.2071 0001224 262.4366  97.6347 15.27617359 18783"
  },
  {
    "name": "STARLINK-36968",
    "noradId": "67995",
    "line1": "1 67995U 26039K   26179.96041994  .00021959  00000+0  80460-3 0  9999",
    "line2": "2 67995  42.9974 140.3039 0002043 281.1566  78.9056 15.27601007 18723"
  },
  {
    "name": "STARLINK-36979",
    "noradId": "67996",
    "line1": "1 67996U 26039L   26179.90917241  .00012742  00000+0  47176-3 0  9998",
    "line2": "2 67996  42.9968 140.7609 0000484 136.0975 223.9916 15.27579915 18711"
  },
  {
    "name": "STARLINK-36994",
    "noradId": "67997",
    "line1": "1 67997U 26039M   26180.34502552  .00018859  00000+0  69282-3 0  9991",
    "line2": "2 67997  43.0022 138.0177 0001520 268.0580  92.0097 15.27593092 18789"
  },
  {
    "name": "STARLINK-36988",
    "noradId": "67998",
    "line1": "1 67998U 26039N   26180.34888050  .00019011  00000+0  69847-3 0  9990",
    "line2": "2 67998  43.0019 138.0456 0001715 270.4884  89.5771 15.27584799 18780"
  },
  {
    "name": "STARLINK-36926",
    "noradId": "67999",
    "line1": "1 67999U 26039P   26180.34118495  .00022263  00000+0  81543-3 0  9990",
    "line2": "2 67999  43.0036 137.9910 0001528 266.3186  93.7491 15.27607802 18781"
  },
  {
    "name": "STARLINK-36931",
    "noradId": "68000",
    "line1": "1 68000U 26039Q   26179.94628192  .00012319  00000+0  45633-3 0  9999",
    "line2": "2 68000  43.0029 140.1810 0001275 267.7992  92.2714 15.27586280 18723"
  },
  {
    "name": "STARLINK-36903",
    "noradId": "68001",
    "line1": "1 68001U 26039R   26179.94385834  .00012949  00000+0  47904-3 0  9995",
    "line2": "2 68001  42.9987 141.0355 0000957 235.5097 124.5664 15.27594180 18714"
  },
  {
    "name": "STARLINK-36898",
    "noradId": "68002",
    "line1": "1 68002U 26039S   26179.93614843  .00015686  00000+0  57812-3 0  9990",
    "line2": "2 68002  42.9989 140.9696 0000661 266.5105  93.5671 15.27590455 18713"
  },
  {
    "name": "STARLINK-36862",
    "noradId": "68003",
    "line1": "1 68003U 26039T   26179.92843951  .00009566  00000+0  35659-3 0  9999",
    "line2": "2 68003  42.9992 140.9139 0000498 281.8376  78.2420 15.27587635 18716"
  },
  {
    "name": "STARLINK-36888",
    "noradId": "68004",
    "line1": "1 68004U 26039U   26179.87461720  .00015050  00000+0  55506-3 0  9992",
    "line2": "2 68004  42.9985 141.3685 0000698 273.7965  86.2807 15.27594760 18700"
  },
  {
    "name": "STARLINK-36910",
    "noradId": "68005",
    "line1": "1 68005U 26039V   26179.93230100  .00022083  00000+0  80863-3 0  9994",
    "line2": "2 68005  43.0009 140.9361 0000830 266.9515  93.1242 15.27618924 18719"
  },
  {
    "name": "STARLINK-36889",
    "noradId": "68006",
    "line1": "1 68006U 26039W   26179.92201368  .00011071  00000+0  41114-3 0  9999",
    "line2": "2 68006  42.9978 140.8628 0000736 259.8057 100.2712 15.27587599 18710"
  },
  {
    "name": "STARLINK-36592",
    "noradId": "68007",
    "line1": "1 68007U 26039X   26180.37585304  .00015631  00000+0  57552-3 0  9995",
    "line2": "2 68007  42.9998 138.2406 0001251 245.3043 114.7678 15.27627466 18782"
  }
]